STARLINK-2740           
1 48690U 21044BE  26068.39465036  .00000738  00000+0  37045-4 0  9996
2 48690  53.1612  76.6888 0001278  99.2058 260.9087 15.30199466264313
AL MUNTHER              
1 63240U 25052AG  26068.64540749  .00017933  00000+0  65015-3 0  9992
2 63240  97.4001 323.9152 0008027 130.7043 229.4895 15.28381521 54798
